{
  "type": "FeatureCollection",
  "generator": "overpass-turbo",
  "copyright": "The data included in this document is from www.openstreetmap.org. The data is made available under ODbL.",
  "timestamp": "2025-05-05T00:26:59Z",
  "features": [
    {
      "type": "Feature",
      "properties": {
        "@id": "relation/35183",
        "ISO3166-2": "AT-6",
        "admin_level": "4",
        "alt_name:mk": "Штирија",
        "alt_name:sl": "Avstrijska Štajerska",
        "boundary": "administrative",
        "coat_of_arms": "https://upload.wikimedia.org/wikipedia/commons/3/35/Steiermark_Wappen.svg",
        "name": "Steiermark",
        "name:ar": "شتايرمارك",
        "name:be": "Штырыя",
        "name:be-tarask": "Штырыя",
        "name:ca": "Estíria",
        "name:cs": "Štýrsko",
        "name:de": "Steiermark",
        "name:en": "Styria",
        "name:eo": "Stirio",
        "name:es": "Estiria",
        "name:fr": "Styrie",
        "name:hr": "Štajerska",
        "name:hu": "Stájerország",
        "name:it": "Stiria",
        "name:mk": "Штаерска",
        "name:nl": "Stiermarken",
        "name:pl": "Styria",
        "name:prefix:at": "Bundesland",
        "name:pt": "Estíria",
        "name:ro": "Stiria",
        "name:ru": "Штирия",
        "name:sk": "Štajersko",
        "name:sl": "Štajerska (zvezna dežela)",
        "name:ta": "சிடிரியா",
        "name:zh": "施泰尔马克州",
        "name:zh-Hans": "施泰尔马克州",
        "name:zh-Hant": "史泰爾馬克邦",
        "ref:at:gkz": "6",
        "ref:nuts": "AT22",
        "ref:nuts:2": "AT22",
        "type": "boundary",
        "website": "http://www.stmk.gv.at",
        "wikidata": "Q41358",
        "wikipedia": "de:Steiermark",
        "@geometry": "center"
      },
      "geometry": {
        "type": "Point",
        "coordinates": [
          14.8675619,
          47.2199384
        ]
      },
      "id": "relation/35183"
    },
    {
      "type": "Feature",
      "properties": {
        "@id": "relation/52343",
        "ISO3166-2": "AT-7",
        "admin_level": "4",
        "alt_name:mk": "Туролска",
        "boundary": "administrative",
        "coat_of_arms": "https://upload.wikimedia.org/wikipedia/commons/c/c3/AUT_Tirol_COA.svg",
        "name": "Tirol",
        "name:ar": "تيرول",
        "name:be": "Ціроль",
        "name:be-tarask": "Тыроль",
        "name:ca": "Tirol",
        "name:cs": "Tyrolsko",
        "name:de": "Tirol",
        "name:en": "Tyrol",
        "name:es": "Tirol",
        "name:fi": "Tiroli",
        "name:fr": "Tyrol",
        "name:ga": "An Tioróil",
        "name:hr": "Tirol",
        "name:hu": "Tirol",
        "name:it": "Tirolo",
        "name:lld": "Tirol",
        "name:lv": "Tirole",
        "name:mk": "Тирол",
        "name:nl": "Tirol",
        "name:pl": "Tyrol",
        "name:prefix:at": "Bundesland",
        "name:ro": "Tirol",
        "name:ru": "Тироль",
        "name:sk": "Tirolsko",
        "name:sl": "Tirolska",
        "name:ta": "டைரொல்",
        "name:tzl": "Tirol",
        "name:zh": "蒂罗尔州",
        "name:zh-Hans": "蒂罗尔州",
        "name:zh-Hant": "提洛邦",
        "population": "707573",
        "ref:at:gkz": "7",
        "ref:nuts": "AT33",
        "ref:nuts:2": "AT33",
        "type": "boundary",
        "website": "https://www.tirol.gv.at/",
        "wikidata": "Q42880",
        "wikipedia": "de:Tirol (Bundesland)",
        "@geometry": "center"
      },
      "geometry": {
        "type": "Point",
        "coordinates": [
          11.5319171,
          47.1972023
        ]
      },
      "id": "relation/52343"
    },
    {
      "type": "Feature",
      "properties": {
        "@id": "relation/52345",
        "ISO3166-2": "AT-2",
        "admin_level": "4",
        "alt_name:cs": "Korutansko",
        "alt_name:mk": "Каринтија",
        "alt_name:sl": "Avstrijska Koroška",
        "boundary": "administrative",
        "coat_of_arms": "https://upload.wikimedia.org/wikipedia/commons/b/b5/Kaernten_CoA.svg",
        "is_in:country": "Austria",
        "is_in:country_code": "AT",
        "name": "Kärnten",
        "name:ar": "كيرنتن",
        "name:be": "Карынтыя",
        "name:be-tarask": "Карынтыя",
        "name:br": "Karintia",
        "name:ca": "Caríntia",
        "name:cs": "Korutany",
        "name:de": "Kärnten",
        "name:en": "Carinthia",
        "name:eo": "Karintio",
        "name:es": "Carintia",
        "name:fr": "Carinthie",
        "name:hr": "Koruška",
        "name:hsb": "Korutanska",
        "name:hu": "Karintia",
        "name:it": "Carinzia",
        "name:la": "Carinthia",
        "name:mk": "Корушка",
        "name:nl": "Karinthië",
        "name:pl": "Karyntia",
        "name:prefix:at": "Bundesland",
        "name:pt": "Caríntia",
        "name:ro": "Carintia",
        "name:ru": "Каринтия",
        "name:sk": "Korutánsko",
        "name:sl": "Koroška",
        "name:ta": "கரின்தையா",
        "name:uk": "Каринтія",
        "name:zh": "克恩顿州",
        "name:zh-Hans": "克恩顿州",
        "name:zh-Hant": "卡林西亞邦",
        "ref:at:gkz": "2",
        "ref:nuts": "AT21",
        "ref:nuts:2": "AT21",
        "source:name:br": "ofis publik ar brezhoneg",
        "type": "boundary",
        "website": "https://www.ktn.gv.at",
        "wikidata": "Q37985",
        "wikipedia": "de:Kärnten",
        "@geometry": "center"
      },
      "geometry": {
        "type": "Point",
        "coordinates": [
          13.86099,
          46.7517981
        ]
      },
      "id": "relation/52345"
    },
    {
      "type": "Feature",
      "properties": {
        "@id": "relation/74942",
        "ISO3166-2": "AT-8",
        "admin_level": "4",
        "alt_name:mk": "Форарлберг",
        "boundary": "administrative",
        "coat_of_arms": "https://upload.wikimedia.org/wikipedia/commons/e/e2/Vorarlberg_CoA.svg",
        "name": "Vorarlberg",
        "name:ar": "فورارلبرغ",
        "name:be": "Форарльберг",
        "name:be-tarask": "Форарльбэрг",
        "name:ca": "Vorarlberg",
        "name:cs": "Vorarlbersko",
        "name:de": "Vorarlberg",
        "name:en": "Vorarlberg",
        "name:es": "Vorarlberg",
        "name:fr": "Vorarlberg",
        "name:hr": "Vorarlberg",
        "name:hu": "Vorarlberg",
        "name:mk": "Предарлска",
        "name:pl": "Vorarlberg",
        "name:prefix:at": "Bundesland",
        "name:ro": "Vorarlberg",
        "name:ru": "Форарльберг",
        "name:sk": "Vorarlbersko",
        "name:sl": "Predarlska",
        "name:ta": "வொரர்ல்பேர்க்",
        "name:zh": "福拉尔贝格州",
        "name:zh-Hans": "福拉尔贝格州",
        "name:zh-Hant": "福拉爾貝格邦",
        "ref:at:gkz": "8",
        "ref:nuts": "AT34",
        "ref:nuts:2": "AT34",
        "type": "boundary",
        "website": "https://www.vorarlberg.gv.at",
        "wikidata": "Q38981",
        "wikipedia": "de:Vorarlberg",
        "@geometry": "center"
      },
      "geometry": {
        "type": "Point",
        "coordinates": [
          9.8839555,
          47.2184818
        ]
      },
      "id": "relation/74942"
    },
    {
      "type": "Feature",
      "properties": {
        "@id": "relation/76909",
        "ISO3166-2": "AT-1",
        "admin_level": "4",
        "alt_name:cs": "Burgenlandsko",
        "alt_name:mk": "Бургенланд",
        "alt_name:sl": "Gradiščansko",
        "boundary": "administrative",
        "coat_of_arms": "https://upload.wikimedia.org/wikipedia/commons/9/92/Burgenland_Wappen.svg",
        "name": "Burgenland",
        "name:ar": "بورغنلاند",
        "name:be": "Бургенланд",
        "name:be-tarask": "Бургенлянд",
        "name:bg": "Бургенланд",
        "name:br": "Burgenland",
        "name:ca": "Burgenland",
        "name:cs": "Hradsko",
        "name:de": "Burgenland",
        "name:en": "Burgenland",
        "name:eo": "Burgenlando",
        "name:es": "Burgenland",
        "name:fr": "Burgenland",
        "name:he": "בורגנלנד",
        "name:hr": "Gradišće",
        "name:hsb": "Hrodowska",
        "name:hu": "Burgenland",
        "name:ja": "ブルゲンラント州",
        "name:mk": "Градиште",
        "name:nl": "Burgenland",
        "name:pl": "Burgenland",
        "name:prefix:at": "Bundesland",
        "name:pt": "Burguenlândia",
        "name:ro": "Burgenland",
        "name:ru": "Бургенланд",
        "name:sk": "Burgenland",
        "name:sl": "Gradiščanska",
        "name:sr": "Бургенланд",
        "name:ta": "புர்கென்லான்ட்",
        "name:uk": "Бургенланд",
        "name:yi": "בורגנלאנד",
        "name:zh": "布尔根兰州",
        "name:zh-Hans": "布尔根兰州",
        "name:zh-Hant": "布根蘭邦",
        "place:note": "state:note see here https://www.openstreetmap.org/node/240037510",
        "ref:at:gkz": "1",
        "ref:nuts": "AT11",
        "ref:nuts:2": "AT11",
        "source:name:br": "ofis publik ar brezhoneg",
        "type": "boundary",
        "website": "http://www.bgld.gv.at",
        "wikidata": "Q43210",
        "wikipedia": "de:Burgenland",
        "@geometry": "center"
      },
      "geometry": {
        "type": "Point",
        "coordinates": [
          16.5785118,
          47.4746586
        ]
      },
      "id": "relation/76909"
    },
    {
      "type": "Feature",
      "properties": {
        "@id": "relation/77189",
        "ISO3166-2": "AT-3",
        "admin_level": "4",
        "alt_name:cs": "Dolní Rakousy",
        "boundary": "administrative",
        "coat_of_arms": "https://upload.wikimedia.org/wikipedia/commons/3/3f/Nieder%C3%B6sterreich_CoA.svg",
        "name": "Niederösterreich",
        "name:ar": "النمسا السفلى",
        "name:be": "Ніжняя Аўстрыя",
        "name:be-tarask": "Ніжняя Аўстрыя",
        "name:ca": "Baixa Àustria",
        "name:cs": "Dolní Rakousko",
        "name:de": "Niederösterreich",
        "name:en": "Lower Austria",
        "name:es": "Baja Austria",
        "name:fi": "Ala-Itävalta",
        "name:fr": "Basse-Autriche",
        "name:ga": "An Ostair Íochtarach",
        "name:hr": "Donja Austrija",
        "name:hu": "Alsó-Ausztria",
        "name:id": "Austria Bawah",
        "name:is": "Neðra Austurríki",
        "name:mk": "Долна Австрија",
        "name:nl": "Neder-Oostenrijk",
        "name:pl": "Dolna Austria",
        "name:prefix:at": "Bundesland",
        "name:pt": "Baixa Áustria",
        "name:ro": "Austria Inferioară",
        "name:ru": "Нижняя Австрия",
        "name:sk": "Dolné Rakúsko",
        "name:sl": "Spodnja Avstrija",
        "name:ta": "கீழ் ஆஸ்திரியா",
        "name:zh": "下奥地利州",
        "name:zh-Hans": "下奥地利州",
        "name:zh-Hant": "下奧地利邦",
        "ref:at:gkz": "3",
        "ref:nuts": "AT12",
        "ref:nuts:2": "AT12",
        "type": "boundary",
        "website": "https://www.noel.gv.at/",
        "wikidata": "Q42497",
        "wikipedia": "de:Niederösterreich",
        "@geometry": "center"
      },
      "geometry": {
        "type": "Point",
        "coordinates": [
          15.7607387,
          48.2213656
        ]
      },
      "id": "relation/77189"
    },
    {
      "type": "Feature",
      "properties": {
        "@id": "relation/86539",
        "ISO3166-2": "AT-5",
        "admin_level": "4",
        "alt_name:cs": "Solnohradsko",
        "alt_name:mk": "Залцбург",
        "alt_name:sl": "Solnograško",
        "boundary": "administrative",
        "coat_of_arms": "https://upload.wikimedia.org/wikipedia/commons/d/de/Salzburg_Wappen.svg",
        "description": "Land Salzburg",
        "name": "Salzburg",
        "name:ar": "زالتسبورغ",
        "name:be": "Зальцбург",
        "name:be-tarask": "Зальцбург",
        "name:ca": "Estat de Salzburg",
        "name:cs": "Salcbursko",
        "name:de": "Salzburg",
        "name:en": "Salzburg",
        "name:es": "Salzburgo",
        "name:fr": "Salzbourg",
        "name:hr": "Salzburg",
        "name:hu": "Salzburg",
        "name:ja": "ザルツブルク",
        "name:la": "Salisburgum",
        "name:lt": "Zalcburgas",
        "name:lv": "Zalcburga",
        "name:mk": "Салцбург",
        "name:nl": "Salzburg",
        "name:pl": "Salzburg",
        "name:prefix:at": "Bundesland",
        "name:ro": "Salzburg",
        "name:ru": "Зальцбург",
        "name:sk": "Salzbursko",
        "name:sl": "Salzburška",
        "name:ta": "சல்பேர்க்",
        "name:uk": "Зальцбург",
        "name:zh": "萨尔茨堡州",
        "name:zh-Hans": "萨尔茨堡州",
        "name:zh-Hant": "薩爾斯堡邦",
        "not:name:ja": "ザルツブルグ",
        "ref:at:gkz": "5",
        "ref:nuts": "AT32",
        "ref:nuts:2": "AT32",
        "type": "boundary",
        "website": "https://www.salzburg.gv.at/",
        "wikidata": "Q43325",
        "@geometry": "center"
      },
      "geometry": {
        "type": "Point",
        "coordinates": [
          13.0361103,
          47.4926636
        ]
      },
      "id": "relation/86539"
    },
    {
      "type": "Feature",
      "properties": {
        "@id": "relation/102303",
        "ISO3166-2": "AT-4",
        "admin_level": "4",
        "alt_name:cs": "Horní Rakousy",
        "boundary": "administrative",
        "coat_of_arms": "https://upload.wikimedia.org/wikipedia/commons/e/e1/Oberoesterreich_Wappen.svg",
        "name": "Oberösterreich",
        "name:ar": "النمسا العليا",
        "name:be": "Верхняя Аўстрыя",
        "name:be-tarask": "Верхняя Аўстрыя",
        "name:ca": "Alta Àustria",
        "name:cs": "Horní Rakousko",
        "name:da": "Øvre Østrig",
        "name:de": "Oberösterreich",
        "name:en": "Upper Austria",
        "name:es": "Alta Austria",
        "name:fi": "Ylä-Itävalta",
        "name:fr": "Haute-Autriche",
        "name:ga": "An Ostair Uachtarach",
        "name:hr": "Gornja Austrija",
        "name:hu": "Felső-Ausztria",
        "name:is": "Efra Austurríki",
        "name:mk": "Горна Австрија",
        "name:nl": "Opper-Oostenrijk",
        "name:pl": "Górna Austria",
        "name:prefix:at": "Bundesland",
        "name:ro": "Austria Superioară",
        "name:ru": "Верхняя Австрия",
        "name:sk": "Horné Rakúsko",
        "name:sl": "Zgornja Avstrija",
        "name:ta": "மேல் ஆஸ்திரியா",
        "name:zh": "上奥地利州",
        "name:zh-Hans": "上奥地利州",
        "name:zh-Hant": "上奧地利邦",
        "ref:at:gkz": "4",
        "ref:nuts": "AT31",
        "ref:nuts:2": "AT31",
        "type": "boundary",
        "website": "https://www.land-oberoesterreich.gv.at/",
        "wikidata": "Q41967",
        "wikipedia": "de:Oberösterreich",
        "@geometry": "center"
      },
      "geometry": {
        "type": "Point",
        "coordinates": [
          13.8707061,
          48.1168379
        ]
      },
      "id": "relation/102303"
    },
    {
      "type": "Feature",
      "properties": {
        "@id": "relation/109166",
        "ISO3166-2": "AT-9",
        "admin_level": "4",
        "boundary": "administrative",
        "capital": "yes",
        "coat_of_arms": "https://upload.wikimedia.org/wikipedia/commons/0/03/Wien_3_Wappen.svg",
        "name": "Wien",
        "name:ar": "فيينا",
        "name:az": "Vyana",
        "name:be": "Вена",
        "name:be-tarask": "Вена",
        "name:ca": "Viena",
        "name:de": "Wien",
        "name:en": "Vienna",
        "name:es": "Viena",
        "name:fr": "Vienne",
        "name:fy": "Wenen",
        "name:gl": "Viena",
        "name:hr": "Beč",
        "name:hu": "Bécs",
        "name:ko": "빈",
        "name:nl": "Wenen",
        "name:no": "Wien",
        "name:pl": "Wiedeń",
        "name:prefix:at": "Statutarstadt",
        "name:pt": "Viena",
        "name:ro": "Viena",
        "name:ru": "Вена",
        "name:sk": "Viedeň",
        "name:sl": "Dunaj",
        "name:szl": "Wiedziyń",
        "name:tzl": "Viadna",
        "name:vi": "Viên",
        "name:zh": "维也纳州",
        "name:zh-Hans": "维也纳州",
        "name:zh-Hant": "維也納邦",
        "note": "Wien (Vienna) is \"Bundesland\" and \"Statutarstadt\" which equals admin_levels 4, 6, 8",
        "ref:at:gkz": "90001",
        "type": "boundary",
        "website": "https://www.wien.gv.at/",
        "wikidata": "Q1741",
        "wikipedia": "de:Wien",
        "@geometry": "center"
      },
      "geometry": {
        "type": "Point",
        "coordinates": [
          16.3796721,
          48.2202874
        ]
      },
      "id": "relation/109166"
    }
  ]
}